ELEKTRO-L 2             
1 41105U 15074A   22180.02202313 -.00000110  00000+0  00000+0 0  9995
2 41105   3.0163  88.0042 0001968  45.8028 136.7018  1.00270871 23983
HIMAWARI-9              
1 41836U 16064A   22180.87467795 -.00000267  00000+0  00000+0 0  9999
2 41836   0.0264  33.7264 0000925  88.3238 251.5150  1.00269536 20664
GOES 16                 
1 41866U 16071A   22180.83164135 -.00000239  00000+0  00000+0 0  9997
2 41866   0.0579 229.4619 0000454 284.2757 348.3320  1.00271380 20590
FENGYUN 4A              
1 41882U 16077A   22181.21906473 -.00000322  00000+0  00000+0 0  9996
2 41882   0.0220 350.6491 0003300 142.4066 328.7277  1.00273206 20465
CYGFM05                 
1 41884U 16078A   22180.55626231  .00001533  00000+0  78614-4 0  9991
2 41884  34.9554 126.4523 0015468 202.5071 157.4963 15.16383115306627
CYGFM04                 
1 41885U 16078B   22180.86730992  .00001594  00000+0  80473-4 0  9999
2 41885  34.9487 113.6783 0014165 222.1207 137.8417 15.16914191306711
CYGFM02                 
1 41886U 16078C   22180.52869195  .00001585  00000+0  79915-4 0  9990
2 41886  34.9580 118.0006 0014748 213.2275 146.7512 15.16951947306744
CYGFM01                 
1 41887U 16078D   22180.55975361  .00001502  00000+0  77441-4 0  9998
2 41887  34.9519 128.8419 0015920 201.8144 158.1891 15.16191155306570
CYGFM08                 
1 41888U 16078E   22180.54054386  .00001574  00000+0  80047-4 0  9998
2 41888  34.9493 121.5557 0015241 213.4416 146.5334 15.16640373306701
CYGFM06                 
1 41889U 16078F   22180.90376538  .00001504  00000+0  75943-4 0  9997
2 41889  34.9571 114.3412 0013763 216.6913 143.2858 15.16967563306745
CYGFM07                 
1 41890U 16078G   22180.23052137  .00001662  00000+0  83887-4 0  9992
2 41890  34.9511 117.3772 0013563 215.1638 144.8179 15.16898859306620
CYGFM03                 
1 41891U 16078H   22180.16339912  .00001676  00000+0  84620-4 0  9995
2 41891  34.9542 118.2714 0013066 212.7846 147.2056 15.16891829306602
FENGYUN 3D              
1 43010U 17072A   22180.83100625  .00000019  00000+0  30430-4 0  9996
2 43010  98.8158 125.3685 0001109 188.3403 171.7759 14.19210625239526
NOAA 20                 
1 43013U 17073A   22180.84016839  .00000004  00000+0  22828-4 0  9990
2 43013  98.7169 119.2008 0001465  71.3381 288.7955 14.19559237238983
GOES 17                 
1 43226U 18022A   22180.74077284  .00000106  00000+0  00000+0 0  9997
2 43226   0.0853 252.2831 0000040 259.9374 255.0440  1.00272937 15895
FENGYUN 2H              
1 43491U 18050A   22180.84829801 -.00000123  00000+0  00000+0 0  9993
2 43491   1.1791  96.9250 0003963  35.9423 169.7940  1.00273286 14910
METOP-C                 
1 43689U 18087A   22181.18073364  .00000034  00000+0  35554-4 0  9992
2 43689  98.6831 240.9527 0002939  28.4266 331.7071 14.21492486189110
GEO-KOMPSAT-2A          
1 43823U 18100A   22180.87214914 -.00000335  00000+0  00000+0 0  9999
2 43823   0.0517 176.0299 0002151 270.8696 273.2519  1.00270534 13090
METEOR-M2 2             
1 44387U 19038A   22181.22373535  .00000001  00000+0  19724-4 0  9998
2 44387  98.7232 141.9003 0000409 174.5769 185.5419 14.23713209155229
FENGYUN 3E              
1 49008U 21062A   22181.12786975 -.00000011  00000+0  15627-4 0  9998
2 49008  98.7097 182.8859 0001399 353.7624   6.3539 14.19733549 51116
GOES 18                 
1 51850U 22021A   22180.73521573  .00000105  00000+0  00000+0 0  9996
2 51850   0.0579 115.0489 0002632 107.6904 182.9115  1.00271849  1257
2022-058A               
1 52785U 22058A   22180.77418122  .00001431  00000+0  18627-3 0  9994
2 52785  49.9966 132.2342 0012304  30.7323 329.4333 14.86435584  4118
2022-058B               
1 52786U 22058B   22181.10821991  .00000822  00000+0  11802-3 0  9996
2 52786  50.0020 130.6690 0012256  34.5692 325.6044 14.86532880  4145
2022-058C               
1 52787U 22058C   22181.17388588  .00001408  00000+0  18292-3 0  9995
2 52787  49.9916 130.3216 0012782  35.2572 324.9196 14.86630741  4153
2022-058D               
1 52788U 22058D   22181.17110031  .00001417  00000+0  18326-3 0  9990
2 52788  50.0064 130.3414 0012961  37.9778 322.2065 14.86780084  4159
2022-058E               
1 52789U 22058E   22181.16879698  .00000785  00000+0  11296-3 0  9997
2 52789  49.9901 130.2843 0014176  38.3794 321.8153 14.86883422  4158
2022-058F               
1 52790U 22058F   22181.16377469  .00001402  00000+0  18003-3 0  9998
2 52790  50.0078 130.2975 0014275  43.2340 316.9711 14.87161685  4152
2022-058G               
1 52791U 22058G   22181.16100020  .00001444  00000+0  18391-3 0  9992
2 52791  49.9917 130.2380 0015274  44.2020 316.0128 14.87316248  4158
2022-058H               
1 52792U 22058H   22180.82124850  .00000920  00000+0  12614-3 0  9992
2 52792  49.9962 131.7923 0016256  44.4634 315.7615 14.87508121  4107
2022-058J               
1 52793U 22058J   22181.22196155  .00001444  00000+0  18258-3 0  9997
2 52793  50.0017 129.9119 0016396  47.9895 312.2409 14.87640003  4198
CZ-2C R/B               
1 52794U 22058K   22180.59332922  .00001222  00000+0  81867-4 0  9992
2 52794  50.1774 128.9080 0103970 148.4345 212.2886 15.10840221  4120
PROGRESS-MS 20          
1 52795U 22059A   22180.53207176  .00008787  00000+0  16309-3 0  9991
2 52795  51.6436 275.4481 0004461 311.4228 231.1241 15.49763021347097
SHENZHOU 14             
1 52797U 22060A   22180.64132396  .00011612  00000+0  14012-3 0  9998
2 52797  41.4702 143.1757 0003226 348.0105 179.0918 15.60615494 66718
NILESAT 301             
1 52817U 22061A   22180.89322243 -.00000074  00000+0  00000+0 0  9990
2 52817   0.0240 344.0314 0000748 237.3819   7.8601  1.00273582   226
FALCON 9 R/B            
1 52818U 22061B   22180.57902177  .00278770  00000+0  35335+0 0  9994
2 52818  18.7553  39.4456 7692725 189.7012 133.8461  1.75849338   365
STARLINK-4091           
1 52830U 22062A   22181.25001157 -.00750677  00000+0 -47005-2 0  9996
2 52830  53.2175 341.9628 0000944 336.7270 350.1982 15.78114115  2511
STARLINK-4089           
1 52831U 22062B   22181.25001157 -.00749801  00000+0 -47014-2 0  9994
2 52831  53.2175 341.9667 0001022 319.3333   6.1560 15.78081165  2518
STARLINK-4083           
1 52832U 22062C   22181.25001157 -.00748889  00000+0 -46933-2 0  9999
2 52832  53.2175 341.9650 0000956 305.1243  20.8554 15.78090497  2502
STARLINK-4086           
1 52833U 22062D   22181.25001157 -.00750524  00000+0 -47020-2 0  9997
2 52833  53.2175 341.9647 0000815 336.5524 349.8958 15.78103111  2019
STARLINK-4108           
1 52834U 22062E   22181.25001157 -.00749547  00000+0 -46906-2 0  9993
2 52834  53.2175 341.9621 0000921 320.8689   6.5324 15.78124640  2012
STARLINK-4080           
1 52835U 22062F   22181.25001157 -.00749339  00000+0 -46865-2 0  9997
2 52835  53.2175 341.9620 0001163 305.7238  22.1530 15.78135450  2017
STARLINK-4043           
1 52836U 22062G   22181.25001157 -.00750533  00000+0 -46927-2 0  9995
2 52836  53.2175 341.9602 0000923 329.9784 358.3824 15.78146369  2016
STARLINK-4036           
1 52837U 22062H   22181.25001157 -.00750297  00000+0 -46841-2 0  9998
2 52837  53.2175 341.9580 0000934 325.0757   4.7109 15.78179280  2017
STARLINK-4092           
1 52838U 22062J   22181.25001157 -.00750777  00000+0 -46919-2 0  9998
2 52838  53.2175 341.9594 0000924 332.0118 356.8194 15.78157948  2507
STARLINK-4048           
1 52839U 22062K   22180.91667824 -.00744681  00000+0 -45257-2 0  9991
2 52839  53.2173 343.6205 0002798 287.4393 308.0269 15.78740553  1302
STARLINK-4049           
1 52840U 22062L   22181.25001157 -.00751276  00000+0 -46883-2 0  9996
2 52840  53.2175 341.9566 0000894 340.5487 349.7087 15.78191153  2506
STARLINK-4065           
1 52841U 22062M   22181.25001157 -.00748977  00000+0 -46610-2 0  9999
2 52841  53.2175 341.9533 0002378 288.7966  43.3585 15.78233689  2506
STARLINK-4046           
1 52842U 22062N   22181.25001157 -.00749155  00000+0 -46785-2 0  9992
2 52842  53.2175 341.9585 0001122 299.6753  29.6367 15.78167607  2506
STARLINK-4188           
1 52843U 22062P   22181.25001157 -.00749190  00000+0 -46574-2 0  9998
2 52843  53.2175 341.9512 0002385 288.6173  44.4655 15.78257505  2505
STARLINK-4208           
1 52844U 22062Q   22180.91667824 -.00746136  00000+0 -45317-2 0  9991
2 52844  53.2173 343.6194 0003273 267.4978 328.4204 15.78752973  1305
STARLINK-4168           
1 52845U 22062R   22180.91667824 -.00749210  00000+0 -45393-2 0  9992
2 52845  53.2173 343.6153 0003624 244.9403 353.2701 15.78810348  1303
STARLINK-4212           
1 52846U 22062S   22180.91667824 -.00745596  00000+0 -45231-2 0  9997
2 52846  53.2173 343.6169 0002406 269.8488 327.4424 15.78786466  1305
STARLINK-4206           
1 52847U 22062T   22180.91667824 -.00744402  00000+0 -45052-2 0  9994
2 52847  53.2173 343.6135 0002925 278.2605 320.8657 15.78829979  1302
STARLINK-4202           
1 52848U 22062U   22180.91667824 -.00746663  00000+0 -45337-2 0  9992
2 52848  53.2173 343.6186 0002831 262.3050 334.0671 15.78764920  1300
STARLINK-4197           
1 52849U 22062V   22180.91667824 -.00745044  00000+0 -45064-2 0  9992
2 52849  53.2173 343.6117 0002207 268.0205 332.0289 15.78851906  1301
STARLINK-4187           
1 52850U 22062W   22181.25001157 -.00750661  00000+0 -46651-2 0  9997
2 52850  53.2175 341.9493 0000970 320.2404  13.7874 15.78280451  2507
STARLINK-3809           
1 52851U 22062X   22180.91667824 -.00744697  00000+0 -45020-2 0  9990
2 52851  53.2173 343.6109 0002164 275.5713 324.9376 15.78862641  1309
STARLINK-4184           
1 52852U 22062Y   22180.91667824 -.00745310  00000+0 -45104-2 0  9997
2 52852  53.2173 343.6123 0002115 270.5926 328.9894 15.78841838  1307
STARLINK-4189           
1 52853U 22062Z   22180.91667824 -.00747253  00000+0 -45104-2 0  9996
2 52853  53.2173 343.6090 0003739 252.9483 348.4648 15.78886756  1308
